{"type":"FeatureCollection","name":"ACT03_flood_hazard_SYNTHETIC","features":[{"type":"Feature","properties":{"hazard_id":"TRN-HZ-01","hazard":"Flood","level_synth":"High","source_status":"SYNTHETIC_TRAINING","warning":"Not an official hazard map"},"geometry":{"type":"Polygon","coordinates":[[[121.095,13.885],[121.155,13.885],[121.165,13.925],[121.105,13.93],[121.095,13.885]]]}},{"type":"Feature","properties":{"hazard_id":"TRN-HZ-02","hazard":"Flood","level_synth":"Moderate","source_status":"SYNTHETIC_TRAINING","warning":"Not an official hazard map"},"geometry":{"type":"Polygon","coordinates":[[[121.145,13.915],[121.215,13.91],[121.225,13.955],[121.155,13.96],[121.145,13.915]]]}},{"type":"Feature","properties":{"hazard_id":"TRN-HZ-03","hazard":"Flood","level_synth":"High","source_status":"SYNTHETIC_TRAINING","warning":"Not an official hazard map"},"geometry":{"type":"Polygon","coordinates":[[[121.205,13.955],[121.275,13.95],[121.28,13.995],[121.215,14.0],[121.205,13.955]]]}},{"type":"Feature","properties":{"hazard_id":"TRN-HZ-04","hazard":"Flood","level_synth":"Moderate","source_status":"SYNTHETIC_TRAINING","warning":"Not an official hazard map"},"geometry":{"type":"Polygon","coordinates":[[[121.11,13.96],[121.155,13.955],[121.165,13.99],[121.12,13.995],[121.11,13.96]]]}}]}