{"type":"FeatureCollection","name":"ACT03_facilities_SYNTHETIC","features":[{"type":"Feature","properties":{"facility_id":"TRN-FAC-001","facility_name":"Training Facility 01","facility_type":"Evacuation Center","assigned_barangay_psgc":"0401014001","assigned_barangay_name":"Adya","capacity_synth":100,"status_synth":"Operational","source_status":"SYNTHETIC_TRAINING","easting_epsg32651_m":295559.54,"northing_epsg32651_m":1535264.86},"geometry":{"type":"Point","coordinates":[121.108155,13.88]}},{"type":"Feature","properties":{"facility_id":"TRN-FAC-002","facility_name":"Training Facility 02","facility_type":"School","assigned_barangay_psgc":"0401014005","assigned_barangay_name":"Antipolo Del Norte","capacity_synth":150,"status_synth":"Operational","source_status":"SYNTHETIC_TRAINING","easting_epsg32651_m":298889.17,"northing_epsg32651_m":1535238.69},"geometry":{"type":"Point","coordinates":[121.138957,13.88]}},{"type":"Feature","properties":{"facility_id":"TRN-FAC-003","facility_name":"Training Facility 03","facility_type":"Health Center","assigned_barangay_psgc":"0401014008","assigned_barangay_name":"San Sebastian","capacity_synth":200,"status_synth":"For verification","source_status":"SYNTHETIC_TRAINING","easting_epsg32651_m":302094.64,"northing_epsg32651_m":1535213.9},"geometry":{"type":"Point","coordinates":[121.168611,13.88]}},{"type":"Feature","properties":{"facility_id":"TRN-FAC-004","facility_name":"Training Facility 04","facility_type":"Multipurpose Hall","assigned_barangay_psgc":"0401014011","assigned_barangay_name":"Bolbok","capacity_synth":250,"status_synth":"Operational","source_status":"SYNTHETIC_TRAINING","easting_epsg32651_m":306088.71,"northing_epsg32651_m":1535183.58},"geometry":{"type":"Point","coordinates":[121.205561,13.88]}},{"type":"Feature","properties":{"facility_id":"TRN-FAC-005","facility_name":"Training Facility 05","facility_type":"Evacuation Center","assigned_barangay_psgc":"0401014014","assigned_barangay_name":"Bulaklakan","capacity_synth":300,"status_synth":"Operational","source_status":"SYNTHETIC_TRAINING","easting_epsg32651_m":309770.85,"northing_epsg32651_m":1535156.17},"geometry":{"type":"Point","coordinates":[121.239625,13.88]}},{"type":"Feature","properties":{"facility_id":"TRN-FAC-006","facility_name":"Training Facility 06","facility_type":"School","assigned_barangay_psgc":"0401014017","assigned_barangay_name":"Dagatan","capacity_synth":400,"status_synth":"Operational","source_status":"SYNTHETIC_TRAINING","easting_epsg32651_m":293615.48,"northing_epsg32651_m":1537592.53},"geometry":{"type":"Point","coordinates":[121.09,13.900895]}},{"type":"Feature","properties":{"facility_id":"TRN-FAC-007","facility_name":"Training Facility 07","facility_type":"Health Center","assigned_barangay_psgc":"0401014021","assigned_barangay_name":"Inosloban","capacity_synth":100,"status_synth":"For verification","source_status":"SYNTHETIC_TRAINING","easting_epsg32651_m":296342.72,"northing_epsg32651_m":1537957.53},"geometry":{"type":"Point","coordinates":[121.115203,13.90439]}},{"type":"Feature","properties":{"facility_id":"TRN-FAC-008","facility_name":"Training Facility 08","facility_type":"Multipurpose Hall","assigned_barangay_psgc":"0401014025","assigned_barangay_name":"Lodlod","capacity_synth":150,"status_synth":"Operational","source_status":"SYNTHETIC_TRAINING","easting_epsg32651_m":299479.27,"northing_epsg32651_m":1538038.63},"geometry":{"type":"Point","coordinates":[121.144214,13.905345]}},{"type":"Feature","properties":{"facility_id":"TRN-FAC-009","facility_name":"Training Facility 09","facility_type":"Evacuation Center","assigned_barangay_psgc":"0401014028","assigned_barangay_name":"Malagonlong","capacity_synth":200,"status_synth":"Operational","source_status":"SYNTHETIC_TRAINING","easting_epsg32651_m":302897.76,"northing_epsg32651_m":1536820.48},"geometry":{"type":"Point","coordinates":[121.175926,13.894575]}},{"type":"Feature","properties":{"facility_id":"TRN-FAC-010","facility_name":"Training Facility 10","facility_type":"School","assigned_barangay_psgc":"0401014031","assigned_barangay_name":"Mataas Na Lupa","capacity_synth":250,"status_synth":"Operational","source_status":"SYNTHETIC_TRAINING","easting_epsg32651_m":306278.76,"northing_epsg32651_m":1537905.28},"geometry":{"type":"Point","coordinates":[121.207129,13.904611]}},{"type":"Feature","properties":{"facility_id":"TRN-FAC-011","facility_name":"Training Facility 11","facility_type":"Health Center","assigned_barangay_psgc":"0401014034","assigned_barangay_name":"Pagolingin East","capacity_synth":300,"status_synth":"For verification","source_status":"SYNTHETIC_TRAINING","easting_epsg32651_m":309586.16,"northing_epsg32651_m":1537565.85},"geometry":{"type":"Point","coordinates":[121.237752,13.901766]}},{"type":"Feature","properties":{"facility_id":"TRN-FAC-012","facility_name":"Training Facility 12","facility_type":"Multipurpose Hall","assigned_barangay_psgc":"0401014037","assigned_barangay_name":"Pinagkawitan","capacity_synth":400,"status_synth":"Operational","source_status":"SYNTHETIC_TRAINING","easting_epsg32651_m":293633.2,"northing_epsg32651_m":1539802.69},"geometry":{"type":"Point","coordinates":[121.09,13.92087]}},{"type":"Feature","properties":{"facility_id":"TRN-FAC-013","facility_name":"Training Facility 13","facility_type":"Evacuation Center","assigned_barangay_psgc":"0401014040","assigned_barangay_name":"Poblacion Barangay 1","capacity_synth":100,"status_synth":"Operational","source_status":"SYNTHETIC_TRAINING","easting_epsg32651_m":296937.99,"northing_epsg32651_m":1541052.0},"geometry":{"type":"Point","coordinates":[121.120484,13.932398]}},{"type":"Feature","properties":{"facility_id":"TRN-FAC-014","facility_name":"Training Facility 14","facility_type":"School","assigned_barangay_psgc":"0401014043","assigned_barangay_name":"Poblacion Barangay 2","capacity_synth":150,"status_synth":"Operational","source_status":"SYNTHETIC_TRAINING","easting_epsg32651_m":299600.6,"northing_epsg32651_m":1540059.97},"geometry":{"type":"Point","coordinates":[121.145191,13.923621]}},{"type":"Feature","properties":{"facility_id":"TRN-FAC-015","facility_name":"Training Facility 15","facility_type":"Health Center","assigned_barangay_psgc":"0401014046","assigned_barangay_name":"Poblacion Barangay 5","capacity_synth":200,"status_synth":"For verification","source_status":"SYNTHETIC_TRAINING","easting_epsg32651_m":303068.22,"northing_epsg32651_m":1539964.78},"geometry":{"type":"Point","coordinates":[121.177281,13.923003]}},{"type":"Feature","properties":{"facility_id":"TRN-FAC-016","facility_name":"Training Facility 16","facility_type":"Multipurpose Hall","assigned_barangay_psgc":"0401014049","assigned_barangay_name":"Poblacion Barangay 8","capacity_synth":250,"status_synth":"Operational","source_status":"SYNTHETIC_TRAINING","easting_epsg32651_m":306367.7,"northing_epsg32651_m":1540657.86},"geometry":{"type":"Point","coordinates":[121.207761,13.929493]}},{"type":"Feature","properties":{"facility_id":"TRN-FAC-017","facility_name":"Training Facility 17","facility_type":"Evacuation Center","assigned_barangay_psgc":"0401014052","assigned_barangay_name":"Quezon","capacity_synth":300,"status_synth":"Operational","source_status":"SYNTHETIC_TRAINING","easting_epsg32651_m":308863.52,"northing_epsg32651_m":1539686.51},"geometry":{"type":"Point","coordinates":[121.230921,13.920883]}},{"type":"Feature","properties":{"facility_id":"TRN-FAC-018","facility_name":"Training Facility 18","facility_type":"School","assigned_barangay_psgc":"0401014055","assigned_barangay_name":"Sampaguita","capacity_synth":400,"status_synth":"Operational","source_status":"SYNTHETIC_TRAINING","easting_epsg32651_m":293657.47,"northing_epsg32651_m":1542824.58},"geometry":{"type":"Point","coordinates":[121.09,13.94818]}},{"type":"Feature","properties":{"facility_id":"TRN-FAC-019","facility_name":"Training Facility 19","facility_type":"Health Center","assigned_barangay_psgc":"0401014058","assigned_barangay_name":"San Celestino","capacity_synth":100,"status_synth":"For verification","source_status":"SYNTHETIC_TRAINING","easting_epsg32651_m":296709.9,"northing_epsg32651_m":1543694.38},"geometry":{"type":"Point","coordinates":[121.11818,13.956261]}},{"type":"Feature","properties":{"facility_id":"TRN-FAC-020","facility_name":"Training Facility 20","facility_type":"Multipurpose Hall","assigned_barangay_psgc":"0401014061","assigned_barangay_name":"San Jose","capacity_synth":150,"status_synth":"Operational","source_status":"SYNTHETIC_TRAINING","easting_epsg32651_m":299743.76,"northing_epsg32651_m":1543001.19},"geometry":{"type":"Point","coordinates":[121.146303,13.950212]}},{"type":"Feature","properties":{"facility_id":"TRN-FAC-021","facility_name":"Training Facility 21","facility_type":"Evacuation Center","assigned_barangay_psgc":"0401014064","assigned_barangay_name":"Sapac","capacity_synth":200,"status_synth":"Operational","source_status":"SYNTHETIC_TRAINING","easting_epsg32651_m":302551.19,"northing_epsg32651_m":1542665.86},"geometry":{"type":"Point","coordinates":[121.172305,13.947378]}},{"type":"Feature","properties":{"facility_id":"TRN-FAC-022","facility_name":"Training Facility 22","facility_type":"School","assigned_barangay_psgc":"0401014069","assigned_barangay_name":"Santo Toribio","capacity_synth":250,"status_synth":"Operational","source_status":"SYNTHETIC_TRAINING","easting_epsg32651_m":306439.29,"northing_epsg32651_m":1543426.01},"geometry":{"type":"Point","coordinates":[121.20823,13.954516]}},{"type":"Feature","properties":{"facility_id":"TRN-FAC-023","facility_name":"Training Facility 23","facility_type":"Health Center","assigned_barangay_psgc":"0401014072","assigned_barangay_name":"Tangob","capacity_synth":300,"status_synth":"For verification","source_status":"SYNTHETIC_TRAINING","easting_epsg32651_m":308602.54,"northing_epsg32651_m":1543043.12},"geometry":{"type":"Point","coordinates":[121.228274,13.951202]}},{"type":"Feature","properties":{"facility_id":"TRN-FAC-024","facility_name":"Training Facility 24","facility_type":"Multipurpose Hall","assigned_barangay_psgc":"0401014075","assigned_barangay_name":"Tipacan","capacity_synth":400,"status_synth":"Operational","source_status":"SYNTHETIC_TRAINING","easting_epsg32651_m":293689.85,"northing_epsg32651_m":1546847.11},"geometry":{"type":"Point","coordinates":[121.09,13.984534]}}]}