{"type":"FeatureCollection","name":"ACT03_roads_SYNTHETIC","features":[{"type":"Feature","properties":{"road_id":"TRN-RD-01","road_name":"Training North-South 1","road_class":"Primary","source_status":"SYNTHETIC_TRAINING"},"geometry":{"type":"LineString","coordinates":[[121.12,13.88],[121.13,13.93],[121.14,13.99]]}},{"type":"Feature","properties":{"road_id":"TRN-RD-02","road_name":"Training North-South 2","road_class":"Secondary","source_status":"SYNTHETIC_TRAINING"},"geometry":{"type":"LineString","coordinates":[[121.18,13.88],[121.17,13.94],[121.18,14.0]]}},{"type":"Feature","properties":{"road_id":"TRN-RD-03","road_name":"Training North-South 3","road_class":"Secondary","source_status":"SYNTHETIC_TRAINING"},"geometry":{"type":"LineString","coordinates":[[121.24,13.88],[121.23,13.94],[121.24,13.99]]}},{"type":"Feature","properties":{"road_id":"TRN-RD-04","road_name":"Training East-West 1","road_class":"Primary","source_status":"SYNTHETIC_TRAINING"},"geometry":{"type":"LineString","coordinates":[[121.1,13.9],[121.18,13.91],[121.27,13.9]]}},{"type":"Feature","properties":{"road_id":"TRN-RD-05","road_name":"Training East-West 2","road_class":"Secondary","source_status":"SYNTHETIC_TRAINING"},"geometry":{"type":"LineString","coordinates":[[121.09,13.94],[121.18,13.95],[121.28,13.94]]}},{"type":"Feature","properties":{"road_id":"TRN-RD-06","road_name":"Training East-West 3","road_class":"Local","source_status":"SYNTHETIC_TRAINING"},"geometry":{"type":"LineString","coordinates":[[121.1,13.98],[121.18,13.97],[121.27,13.98]]}},{"type":"Feature","properties":{"road_id":"TRN-RD-07","road_name":"Training Connector 1","road_class":"Local","source_status":"SYNTHETIC_TRAINING"},"geometry":{"type":"LineString","coordinates":[[121.13,13.9],[121.18,13.95],[121.24,13.98]]}},{"type":"Feature","properties":{"road_id":"TRN-RD-08","road_name":"Training Connector 2","road_class":"Local","source_status":"SYNTHETIC_TRAINING"},"geometry":{"type":"LineString","coordinates":[[121.25,13.9],[121.18,13.94],[121.12,13.98]]}}]}